CCSDS_OMM_VERS = 2.0
CREATION_DATE  = 
ORIGINATOR     = 

OBJECT_NAME    = SL-16 R/B
OBJECT_ID      = 1996-051B
CENTER_NAME    = EARTH
REF_FRAME      = TEME
TIME_SYSTEM    = UTC
MEAN_ELEMENT_THEORY = SGP/SGP4

EPOCH          = 2025-11-04T10:58:11.371584
MEAN_MOTION    = 14.12392231
ECCENTRICITY   = .00175784
INCLINATION    = 70.7590
RA_OF_ASC_NODE = 80.3112
ARG_OF_PERICENTER = 310.1672
MEAN_ANOMALY   = 49.7907

EPHEMERIS_TYPE = 0
CLASSIFICATION_TYPE = U
NORAD_CAT_ID   = 24298
ELEMENT_SET_NO = 999
REV_AT_EPOCH   = 50396
BSTAR          = -.22640879E-4
MEAN_MOTION_DOT = -.91E-6
MEAN_MOTION_DDOT = 0

CCSDS_OMM_VERS = 2.0
CREATION_DATE  = 
ORIGINATOR     = 

OBJECT_NAME    = ORBVIEW 2 (SEASTAR)
OBJECT_ID      = 1997-037A
CENTER_NAME    = EARTH
REF_FRAME      = TEME
TIME_SYSTEM    = UTC
MEAN_ELEMENT_THEORY = SGP/SGP4

EPOCH          = 2025-11-04T10:29:26.012832
MEAN_MOTION    = 14.35371419
ECCENTRICITY   = .00032128
INCLINATION    = 98.8444
RA_OF_ASC_NODE = 104.5530
ARG_OF_PERICENTER = 77.4016
MEAN_ANOMALY   = 282.7528

EPHEMERIS_TYPE = 0
CLASSIFICATION_TYPE = U
NORAD_CAT_ID   = 24883
ELEMENT_SET_NO = 999
REV_AT_EPOCH   = 49050
BSTAR          = .13610751E-3
MEAN_MOTION_DOT = .344E-5
MEAN_MOTION_DDOT = 0

CCSDS_OMM_VERS = 2.0
CREATION_DATE  = 
ORIGINATOR     = 

OBJECT_NAME    = SL-16 R/B
OBJECT_ID      = 1998-043G
CENTER_NAME    = EARTH
REF_FRAME      = TEME
TIME_SYSTEM    = UTC
MEAN_ELEMENT_THEORY = SGP/SGP4

EPOCH          = 2025-11-04T15:05:17.494944
MEAN_MOTION    = 14.26010571
ECCENTRICITY   = .00102902
INCLINATION    = 98.8059
RA_OF_ASC_NODE = 256.2461
ARG_OF_PERICENTER = 23.1604
MEAN_ANOMALY   = 337.0038

EPHEMERIS_TYPE = 0
CLASSIFICATION_TYPE = U
NORAD_CAT_ID   = 25400
ELEMENT_SET_NO = 999
REV_AT_EPOCH   = 42116
BSTAR          = .55707517E-4
MEAN_MOTION_DOT = .88E-6
MEAN_MOTION_DDOT = 0

CCSDS_OMM_VERS = 2.0
CREATION_DATE  = 
ORIGINATOR     = 

OBJECT_NAME    = SL-16 R/B
OBJECT_ID      = 1998-045B
CENTER_NAME    = EARTH
REF_FRAME      = TEME
TIME_SYSTEM    = UTC
MEAN_ELEMENT_THEORY = SGP/SGP4

EPOCH          = 2025-11-04T11:32:42.169632
MEAN_MOTION    = 14.16167499
ECCENTRICITY   = .00089581
INCLINATION    = 71.0103
RA_OF_ASC_NODE = 84.8797
ARG_OF_PERICENTER = 228.2343
MEAN_ANOMALY   = 131.8015

EPHEMERIS_TYPE = 0
CLASSIFICATION_TYPE = U
NORAD_CAT_ID   = 25407
ELEMENT_SET_NO = 999
REV_AT_EPOCH   = 40937
BSTAR          = .12884298E-3
MEAN_MOTION_DOT = .207E-5
MEAN_MOTION_DDOT = 0

CCSDS_OMM_VERS = 2.0
CREATION_DATE  = 
ORIGINATOR     = 

OBJECT_NAME    = ISS (ZARYA)
OBJECT_ID      = 1998-067A
CENTER_NAME    = EARTH
REF_FRAME      = TEME
TIME_SYSTEM    = UTC
MEAN_ELEMENT_THEORY = SGP/SGP4

EPOCH          = 2025-11-04T13:13:54.016032
MEAN_MOTION    = 15.49747070
ECCENTRICITY   = .00050287
INCLINATION    = 51.6336
RA_OF_ASC_NODE = 331.5320
ARG_OF_PERICENTER = 16.6774
MEAN_ANOMALY   = 343.4380

EPHEMERIS_TYPE = 0
CLASSIFICATION_TYPE = U
NORAD_CAT_ID   = 25544
ELEMENT_SET_NO = 999
REV_AT_EPOCH   = 53693
BSTAR          = .18874239E-3
MEAN_MOTION_DOT = .10237E-3
MEAN_MOTION_DDOT = 0

CCSDS_OMM_VERS = 2.0
CREATION_DATE  = 
ORIGINATOR     = 

OBJECT_NAME    = CZ-4B R/B
OBJECT_ID      = 1999-025C
CENTER_NAME    = EARTH
REF_FRAME      = TEME
TIME_SYSTEM    = UTC
MEAN_ELEMENT_THEORY = SGP/SGP4

EPOCH          = 2025-11-04T14:24:27.745632
MEAN_MOTION    = 14.18228857
ECCENTRICITY   = .00367839
INCLINATION    = 98.6829
RA_OF_ASC_NODE = 350.7223
ARG_OF_PERICENTER = 346.3948
MEAN_ANOMALY   = 169.5743

EPHEMERIS_TYPE = 0
CLASSIFICATION_TYPE = U
NORAD_CAT_ID   = 25732
ELEMENT_SET_NO = 999
REV_AT_EPOCH   = 37043
BSTAR          = .63779205E-4
MEAN_MOTION_DOT = .89E-6
MEAN_MOTION_DDOT = 0

CCSDS_OMM_VERS = 2.0
CREATION_DATE  = 
ORIGINATOR     = 

OBJECT_NAME    = OKEAN-O
OBJECT_ID      = 1999-039A
CENTER_NAME    = EARTH
REF_FRAME      = TEME
TIME_SYSTEM    = UTC
MEAN_ELEMENT_THEORY = SGP/SGP4

EPOCH          = 2025-11-04T14:14:46.785120
MEAN_MOTION    = 14.80061540
ECCENTRICITY   = .00016855
INCLINATION    = 97.9659
RA_OF_ASC_NODE = 4.6162
ARG_OF_PERICENTER = 73.0275
MEAN_ANOMALY   = 287.1121

EPHEMERIS_TYPE = 0
CLASSIFICATION_TYPE = U
NORAD_CAT_ID   = 25860
ELEMENT_SET_NO = 999
REV_AT_EPOCH   = 41588
BSTAR          = .12046348E-3
MEAN_MOTION_DOT = .86E-5
MEAN_MOTION_DDOT = 0

CCSDS_OMM_VERS = 2.0
CREATION_DATE  = 
ORIGINATOR     = 

OBJECT_NAME    = SL-16 R/B
OBJECT_ID      = 1999-039B
CENTER_NAME    = EARTH
REF_FRAME      = TEME
TIME_SYSTEM    = UTC
MEAN_ELEMENT_THEORY = SGP/SGP4

EPOCH          = 2025-11-04T15:00:45.723744
MEAN_MOTION    = 14.81501214
ECCENTRICITY   = .00137003
INCLINATION    = 98.0182
RA_OF_ASC_NODE = 2.7641
ARG_OF_PERICENTER = 306.4652
MEAN_ANOMALY   = 53.5298

EPHEMERIS_TYPE = 0
CLASSIFICATION_TYPE = U
NORAD_CAT_ID   = 25861
ELEMENT_SET_NO = 999
REV_AT_EPOCH   = 41834
BSTAR          = .92401318E-4
MEAN_MOTION_DOT = .671E-5
MEAN_MOTION_DDOT = 0

CCSDS_OMM_VERS = 2.0
CREATION_DATE  = 
ORIGINATOR     = 

OBJECT_NAME    = DELTA 2 R/B
OBJECT_ID      = 1999-041E
CENTER_NAME    = EARTH
REF_FRAME      = TEME
TIME_SYSTEM    = UTC
MEAN_ELEMENT_THEORY = SGP/SGP4

EPOCH          = 2025-11-04T02:50:32.482464
MEAN_MOTION    = 14.11262397
ECCENTRICITY   = .05047302
INCLINATION    = 51.7634
RA_OF_ASC_NODE = 82.5943
ARG_OF_PERICENTER = 337.9496
MEAN_ANOMALY   = 20.0390

EPHEMERIS_TYPE = 0
CLASSIFICATION_TYPE = U
NORAD_CAT_ID   = 25876
ELEMENT_SET_NO = 999
REV_AT_EPOCH   = 34529
BSTAR          = .19356236E-3
MEAN_MOTION_DOT = .96E-5
MEAN_MOTION_DDOT = 0

CCSDS_OMM_VERS = 2.0
CREATION_DATE  = 
ORIGINATOR     = 

OBJECT_NAME    = HELIOS 1B
OBJECT_ID      = 1999-064A
CENTER_NAME    = EARTH
REF_FRAME      = TEME
TIME_SYSTEM    = UTC
MEAN_ELEMENT_THEORY = SGP/SGP4

EPOCH          = 2025-11-04T15:41:49.790400
MEAN_MOTION    = 14.87039496
ECCENTRICITY   = .00025125
INCLINATION    = 98.1759
RA_OF_ASC_NODE = 202.1958
ARG_OF_PERICENTER = 94.7575
MEAN_ANOMALY   = 265.3927

EPHEMERIS_TYPE = 0
CLASSIFICATION_TYPE = U
NORAD_CAT_ID   = 25977
ELEMENT_SET_NO = 999
REV_AT_EPOCH   = 66667
BSTAR          = .2558746E-3
MEAN_MOTION_DOT = .2235E-4
MEAN_MOTION_DDOT = 0

CCSDS_OMM_VERS = 2.0
CREATION_DATE  = 
ORIGINATOR     = 

OBJECT_NAME    = TERRA
OBJECT_ID      = 1999-068A
CENTER_NAME    = EARTH
REF_FRAME      = TEME
TIME_SYSTEM    = UTC
MEAN_ELEMENT_THEORY = SGP/SGP4

EPOCH          = 2025-11-04T16:07:01.717824
MEAN_MOTION    = 14.60883477
ECCENTRICITY   = .00018054
INCLINATION    = 97.9804
RA_OF_ASC_NODE = 1.7411
ARG_OF_PERICENTER = 183.3828
MEAN_ANOMALY   = 335.0465

EPHEMERIS_TYPE = 0
CLASSIFICATION_TYPE = U
NORAD_CAT_ID   = 25994
ELEMENT_SET_NO = 999
REV_AT_EPOCH   = 37682
BSTAR          = .12518324E-3
MEAN_MOTION_DOT = .568E-5
MEAN_MOTION_DDOT = 0

CCSDS_OMM_VERS = 2.0
CREATION_DATE  = 
ORIGINATOR     = 

OBJECT_NAME    = SL-16 R/B
OBJECT_ID      = 2000-006B
CENTER_NAME    = EARTH
REF_FRAME      = TEME
TIME_SYSTEM    = UTC
MEAN_ELEMENT_THEORY = SGP/SGP4

EPOCH          = 2025-11-04T12:49:56.767584
MEAN_MOTION    = 14.15800138
ECCENTRICITY   = .00163233
INCLINATION    = 71.0041
RA_OF_ASC_NODE = 0.9899
ARG_OF_PERICENTER = 3.9398
MEAN_ANOMALY   = 356.1850

EPHEMERIS_TYPE = 0
CLASSIFICATION_TYPE = U
NORAD_CAT_ID   = 26070
ELEMENT_SET_NO = 999
REV_AT_EPOCH   = 33084
BSTAR          = .14968616E-3
MEAN_MOTION_DOT = .247E-5
MEAN_MOTION_DDOT = 0

