SL-16 R/B               
1 24298U 96051B   25308.45707606 -.00000091  00000+0 -22641-4 0  9999
2 24298  70.7590  80.3112 0017578 310.1672  49.7907 14.12392231503965
ORBVIEW 2 (SEASTAR)     
1 24883U 97037A   25308.43710663  .00000344  00000+0  13611-3 0  9994
2 24883  98.8444 104.5530 0003212  77.4016 282.7528 14.35371419490505
SL-16 R/B               
1 25400U 98043G   25308.62867471  .00000088  00000+0  55708-4 0  9998
2 25400  98.8059 256.2461 0010290  23.1604 337.0038 14.26010571421161
SL-16 R/B               
1 25407U 98045B   25308.48104363  .00000207  00000+0  12884-3 0  9995
2 25407  71.0103  84.8797 0008958 228.2343 131.8015 14.16167499409379
ISS (ZARYA)             
1 25544U 98067A   25308.55131963  .00010237  00000+0  18874-3 0  9994
2 25544  51.6336 331.5320 0005028  16.6774 343.4380 15.49747070536934
CZ-4B R/B               
1 25732U 99025C   25308.60032113  .00000089  00000+0  63779-4 0  9990
2 25732  98.6829 350.7223 0036783 346.3948 169.5743 14.18228857370437
OKEAN-O                 
1 25860U 99039A   25308.59359705  .00000860  00000+0  12046-3 0  9991
2 25860  97.9659   4.6162 0001685  73.0275 287.1121 14.80061540415888
SL-16 R/B               
1 25861U 99039B   25308.62552921  .00000671  00000+0  92401-4 0  9995
2 25861  98.0182   2.7641 0013700 306.4652  53.5298 14.81501214418348
DELTA 2 R/B             
1 25876U 99041E   25308.11843151  .00000960  00000+0  19356-3 0  9994
2 25876  51.7634  82.5943 0504730 337.9496  20.0390 14.11262397345290
HELIOS 1B               
1 25977U 99064A   25308.65404850  .00002235  00000+0  25587-3 0  9999
2 25977  98.1759 202.1958 0002512  94.7575 265.3927 14.87039496666671
TERRA                   
1 25994U 99068A   25308.67154766  .00000568  00000+0  12518-3 0  9999
2 25994  97.9804   1.7411 0001805 183.3828 335.0465 14.60883477376829
SL-16 R/B               
1 26070U 00006B   25308.53468481  .00000247  00000+0  14969-3 0  9992
2 26070  71.0041   0.9899 0016323   3.9398 356.1850 14.15800138330849
